STARLINK-2022           
1 47643U 21012Z   24033.91005410 -.00005108  00000+0 -32436-3 0  9998
2 47643  53.0536 249.3371 0002575 100.4152 259.7127 15.06386703164844
